[{"OBJECT_NAME":"ONEWEB-0176","OBJECT_ID":"2021-031A","EPOCH":"2026-04-26T11:52:48.927072","MEAN_MOTION":13.14503595,"ECCENTRICITY":0.0001704,"INCLINATION":87.8925,"RA_OF_ASC_NODE":300.0158,"ARG_OF_PERICENTER":87.8241,"MEAN_ANOMALY":272.3084,"EPHEMERIS_TYPE":0,"CLASSIFICATION_TYPE":"U","NORAD_CAT_ID":48210,"ELEMENT_SET_NO":999,"REV_AT_EPOCH":24152,"BSTAR":0.00068958,"MEAN_MOTION_DOT":2.68e-06,"MEAN_MOTION_DDOT":0.0},{"OBJECT_NAME":"ONEWEB-0184","OBJECT_ID":"2021-031B","EPOCH":"2026-04-26T11:13:59.787840","MEAN_MOTION":13.14502777,"ECCENTRICITY":0.0002025,"INCLINATION":87.8938,"RA_OF_ASC_NODE":300.0172,"ARG_OF_PERICENTER":67.3133,"MEAN_ANOMALY":292.8211,"EPHEMERIS_TYPE":0,"CLASSIFICATION_TYPE":"U","NORAD_CAT_ID":48211,"ELEMENT_SET_NO":999,"REV_AT_EPOCH":24149,"BSTAR":-0.00019892000000000003,"MEAN_MOTION_DOT":-6.1e-07,"MEAN_MOTION_DDOT":0.0},{"OBJECT_NAME":"ONEWEB-0179","OBJECT_ID":"2021-031C","EPOCH":"2026-04-26T12:00:02.000160","MEAN_MOTION":13.93068581,"ECCENTRICITY":0.0089926,"INCLINATION":87.8938,"RA_OF_ASC_NODE":299.3097,"ARG_OF_PERICENTER":60.0451,"MEAN_ANOMALY":299.9127,"EPHEMERIS_TYPE":0,"CLASSIFICATION_TYPE":"U","NORAD_CAT_ID":48212,"ELEMENT_SET_NO":999,"REV_AT_EPOCH":502,"BSTAR":0.1708,"MEAN_MOTION_DOT":0.00236712,"MEAN_MOTION_DDOT":0.0},{"OBJECT_NAME":"ONEWEB-0180","OBJECT_ID":"2021-031D","EPOCH":"2026-04-26T11:18:32.421312","MEAN_MOTION":13.1450227,"ECCENTRICITY":0.0001488,"INCLINATION":87.8925,"RA_OF_ASC_NODE":300.0162,"ARG_OF_PERICENTER":84.466,"MEAN_ANOMALY":275.6639,"EPHEMERIS_TYPE":0,"CLASSIFICATION_TYPE":"U","NORAD_CAT_ID":48213,"ELEMENT_SET_NO":999,"REV_AT_EPOCH":24142,"BSTAR":-0.00019791,"MEAN_MOTION_DOT":-6.1e-07,"MEAN_MOTION_DDOT":0.0},{"OBJECT_NAME":"ONEWEB-0218","OBJECT_ID":"2021-031E","EPOCH":"2026-04-26T11:50:32.205120","MEAN_MOTION":13.14503258,"ECCENTRICITY":0.0001767,"INCLINATION":87.8926,"RA_OF_ASC_NODE":300.01,"ARG_OF_PERICENTER":62.5692,"MEAN_ANOMALY":297.5617,"EPHEMERIS_TYPE":0,"CLASSIFICATION_TYPE":"U","NORAD_CAT_ID":48214,"ELEMENT_SET_NO":999,"REV_AT_EPOCH":24158,"BSTAR":0.00042848,"MEAN_MOTION_DOT":1.72e-06,"MEAN_MOTION_DDOT":0.0},{"OBJECT_NAME":"ONEWEB-0209","OBJECT_ID":"2021-031F","EPOCH":"2026-04-26T11:34:33.675744","MEAN_MOTION":13.14501933,"ECCENTRICITY":0.0001498,"INCLINATION":87.8912,"RA_OF_ASC_NODE":300.0349,"ARG_OF_PERICENTER":91.9628,"MEAN_ANOMALY":268.1673,"EPHEMERIS_TYPE":0,"CLASSIFICATION_TYPE":"U","NORAD_CAT_ID":48215,"ELEMENT_SET_NO":999,"REV_AT_EPOCH":24158,"BSTAR":0.00035081,"MEAN_MOTION_DOT":1.43e-06,"MEAN_MOTION_DDOT":0.0},{"OBJECT_NAME":"ONEWEB-0198","OBJECT_ID":"2021-031G","EPOCH":"2026-04-26T11:11:54.705696","MEAN_MOTION":13.14502717,"ECCENTRICITY":0.0001444,"INCLINATION":87.8915,"RA_OF_ASC_NODE":300.0384,"ARG_OF_PERICENTER":78.4838,"MEAN_ANOMALY":281.6454,"EPHEMERIS_TYPE":0,"CLASSIFICATION_TYPE":"U","NORAD_CAT_ID":48216,"ELEMENT_SET_NO":999,"REV_AT_EPOCH":24169,"BSTAR":-0.00029983,"MEAN_MOTION_DOT":-9.8e-07,"MEAN_MOTION_DDOT":0.0},{"OBJECT_NAME":"ONEWEB-0189","OBJECT_ID":"2021-031H","EPOCH":"2026-04-26T11:29:59.170848","MEAN_MOTION":13.14502191,"ECCENTRICITY":0.0001506,"INCLINATION":87.8926,"RA_OF_ASC_NODE":300.0164,"ARG_OF_PERICENTER":81.7362,"MEAN_ANOMALY":278.3938,"EPHEMERIS_TYPE":0,"CLASSIFICATION_TYPE":"U","NORAD_CAT_ID":48217,"ELEMENT_SET_NO":999,"REV_AT_EPOCH":24143,"BSTAR":0.00022562,"MEAN_MOTION_DOT":9.6e-07,"MEAN_MOTION_DDOT":0.0},{"OBJECT_NAME":"ONEWEB-0196","OBJECT_ID":"2021-031J","EPOCH":"2026-04-26T12:47:37.135680","MEAN_MOTION":13.14503651,"ECCENTRICITY":0.0001596,"INCLINATION":87.8926,"RA_OF_ASC_NODE":300.0155,"ARG_OF_PERICENTER":88.6179,"MEAN_ANOMALY":271.5133,"EPHEMERIS_TYPE":0,"CLASSIFICATION_TYPE":"U","NORAD_CAT_ID":48218,"ELEMENT_SET_NO":999,"REV_AT_EPOCH":24144,"BSTAR":-0.00041828,"MEAN_MOTION_DOT":-1.42e-06,"MEAN_MOTION_DDOT":0.0},{"OBJECT_NAME":"ONEWEB-0183","OBJECT_ID":"2021-031K","EPOCH":"2026-04-26T12:11:04.949088","MEAN_MOTION":13.14502986,"ECCENTRICITY":0.0001688,"INCLINATION":87.8925,"RA_OF_ASC_NODE":300.0197,"ARG_OF_PERICENTER":98.231,"MEAN_ANOMALY":261.9011,"EPHEMERIS_TYPE":0,"CLASSIFICATION_TYPE":"U","NORAD_CAT_ID":48219,"ELEMENT_SET_NO":999,"REV_AT_EPOCH":24153,"BSTAR":0.00046865000000000003,"MEAN_MOTION_DOT":1.87e-06,"MEAN_MOTION_DDOT":0.0},{"OBJECT_NAME":"ONEWEB-0185","OBJECT_ID":"2021-031L","EPOCH":"2026-04-26T10:59:09.472128","MEAN_MOTION":13.14502832,"ECCENTRICITY":0.0001379,"INCLINATION":87.8934,"RA_OF_ASC_NODE":300.0183,"ARG_OF_PERICENTER":101.0894,"MEAN_ANOMALY":259.0391,"EPHEMERIS_TYPE":0,"CLASSIFICATION_TYPE":"U","NORAD_CAT_ID":48220,"ELEMENT_SET_NO":999,"REV_AT_EPOCH":24145,"BSTAR":-0.00050002,"MEAN_MOTION_DOT":-1.73e-06,"MEAN_MOTION_DDOT":0.0},{"OBJECT_NAME":"ONEWEB-0187","OBJECT_ID":"2021-031M","EPOCH":"2026-04-26T12:20:01.822272","MEAN_MOTION":13.14502206,"ECCENTRICITY":0.0001446,"INCLINATION":87.8915,"RA_OF_ASC_NODE":300.0318,"ARG_OF_PERICENTER":91.1291,"MEAN_ANOMALY":269.0005,"EPHEMERIS_TYPE":0,"CLASSIFICATION_TYPE":"U","NORAD_CAT_ID":48221,"ELEMENT_SET_NO":999,"REV_AT_EPOCH":24147,"BSTAR":0.00017921999999999998,"MEAN_MOTION_DOT":7.9e-07,"MEAN_MOTION_DDOT":0.0},{"OBJECT_NAME":"ONEWEB-0192","OBJECT_ID":"2021-031N","EPOCH":"2026-04-26T11:36:50.427072","MEAN_MOTION":13.14502264,"ECCENTRICITY":0.0001722,"INCLINATION":87.8914,"RA_OF_ASC_NODE":300.0266,"ARG_OF_PERICENTER":88.3313,"MEAN_ANOMALY":271.8014,"EPHEMERIS_TYPE":0,"CLASSIFICATION_TYPE":"U","NORAD_CAT_ID":48222,"ELEMENT_SET_NO":999,"REV_AT_EPOCH":24138,"BSTAR":0.00035046,"MEAN_MOTION_DOT":1.43e-06,"MEAN_MOTION_DDOT":0.0},{"OBJECT_NAME":"ONEWEB-0219","OBJECT_ID":"2021-031P","EPOCH":"2026-04-26T11:07:07.495680","MEAN_MOTION":13.14502117,"ECCENTRICITY":0.0001454,"INCLINATION":87.8921,"RA_OF_ASC_NODE":300.0207,"ARG_OF_PERICENTER":93.5922,"MEAN_ANOMALY":266.5374,"EPHEMERIS_TYPE":0,"CLASSIFICATION_TYPE":"U","NORAD_CAT_ID":48223,"ELEMENT_SET_NO":999,"REV_AT_EPOCH":24158,"BSTAR":-0.0011139000000000001,"MEAN_MOTION_DOT":-4e-06,"MEAN_MOTION_DDOT":0.0},{"OBJECT_NAME":"ONEWEB-0202","OBJECT_ID":"2021-031Q","EPOCH":"2026-04-26T12:29:20.103648","MEAN_MOTION":13.14504396,"ECCENTRICITY":0.0001703,"INCLINATION":87.8929,"RA_OF_ASC_NODE":300.019,"ARG_OF_PERICENTER":67.807,"MEAN_ANOMALY":292.3241,"EPHEMERIS_TYPE":0,"CLASSIFICATION_TYPE":"U","NORAD_CAT_ID":48224,"ELEMENT_SET_NO":999,"REV_AT_EPOCH":24157,"BSTAR":-5.6436e-05,"MEAN_MOTION_DOT":-8e-08,"MEAN_MOTION_DDOT":0.0},{"OBJECT_NAME":"ONEWEB-0204","OBJECT_ID":"2021-031R","EPOCH":"2026-04-26T11:28:50.315232","MEAN_MOTION":13.14502982,"ECCENTRICITY":0.0001675,"INCLINATION":87.8927,"RA_OF_ASC_NODE":300.0225,"ARG_OF_PERICENTER":102.0441,"MEAN_ANOMALY":258.0876,"EPHEMERIS_TYPE":0,"CLASSIFICATION_TYPE":"U","NORAD_CAT_ID":48225,"ELEMENT_SET_NO":999,"REV_AT_EPOCH":24146,"BSTAR":6.1641e-05,"MEAN_MOTION_DOT":3.6e-07,"MEAN_MOTION_DDOT":0.0}]