ONEWEB-0176             
1 48210U 21031A   26116.49501073  .00000268  00000+0  68958-3 0  9991
2 48210  87.8925 300.0158 0001704  87.8241 272.3084 13.14503595241521
ONEWEB-0184             
1 48211U 21031B   26116.46805310 -.00000061  00000+0 -19892-3 0  9996
2 48211  87.8938 300.0172 0002025  67.3133 292.8211 13.14502777241498
ONEWEB-0179             
1 48212U 21031C   26116.50002315  .00236712  00000+0  17080+0 0  9991
2 48212  87.8938 299.3097 0089926  60.0451 299.9127 13.93068581  5021
ONEWEB-0180             
1 48213U 21031D   26116.47120858 -.00000061  00000+0 -19791-3 0  9994
2 48213  87.8925 300.0162 0001488  84.4660 275.6639 13.14502270241426
ONEWEB-0218             
1 48214U 21031E   26116.49342830  .00000172  00000+0  42848-3 0  9993
2 48214  87.8926 300.0100 0001767  62.5692 297.5617 13.14503258241585
ONEWEB-0209             
1 48215U 21031F   26116.48233421  .00000143  00000+0  35081-3 0  9997
2 48215  87.8912 300.0349 0001498  91.9628 268.1673 13.14501933241586
ONEWEB-0198             
1 48216U 21031G   26116.46660539 -.00000098  00000+0 -29983-3 0  9995
2 48216  87.8915 300.0384 0001444  78.4838 281.6454 13.14502717241693
ONEWEB-0189             
1 48217U 21031H   26116.47915707  .00000096  00000+0  22562-3 0  9999
2 48217  87.8926 300.0164 0001506  81.7362 278.3938 13.14502191241438
ONEWEB-0196             
1 48218U 21031J   26116.53306870 -.00000142  00000+0 -41828-3 0  9992
2 48218  87.8926 300.0155 0001596  88.6179 271.5133 13.14503651241445
ONEWEB-0183             
1 48219U 21031K   26116.50769617  .00000187  00000+0  46865-3 0  9995
2 48219  87.8925 300.0197 0001688  98.2310 261.9011 13.14502986241535
ONEWEB-0185             
1 48220U 21031L   26116.45774852 -.00000173  00000+0 -50002-3 0  9993
2 48220  87.8934 300.0183 0001379 101.0894 259.0391 13.14502832241459
ONEWEB-0187             
1 48221U 21031M   26116.51390998  .00000079  00000+0  17922-3 0  9993
2 48221  87.8915 300.0318 0001446  91.1291 269.0005 13.14502206241474
ONEWEB-0192             
1 48222U 21031N   26116.48391698  .00000143  00000+0  35046-3 0  9997
2 48222  87.8914 300.0266 0001722  88.3313 271.8014 13.14502264241381
ONEWEB-0219             
1 48223U 21031P   26116.46328120 -.00000400  00000+0 -11139-2 0  9990
2 48223  87.8921 300.0207 0001454  93.5922 266.5374 13.14502117241580
ONEWEB-0202             
1 48224U 21031Q   26116.52037157 -.00000008  00000+0 -56436-4 0  9990
2 48224  87.8929 300.0190 0001703  67.8070 292.3241 13.14504396241575
ONEWEB-0204             
1 48225U 21031R   26116.47836013  .00000036  00000+0  61641-4 0  9996
2 48225  87.8927 300.0225 0001675 102.0441 258.0876 13.14502982241465
